[{"OBJECT_NAME":"CUTE-1 (CO-55)","OBJECT_ID":"2003-031E","EPOCH":"2026-03-05T23:32:37.269024","MEAN_MOTION":14.24262327,"ECCENTRICITY":0.00105588,"INCLINATION":98.6779,"RA_OF_ASC_NODE":74.8258,"ARG_OF_PERICENTER":122.1079,"MEAN_ANOMALY":238.1126,"EPHEMERIS_TYPE":0,"CLASSIFICATION_TYPE":"U","NORAD_CAT_ID":27844,"ELEMENT_SET_NO":999,"REV_AT_EPOCH":17698,"BSTAR":0.00019809167,"MEAN_MOTION_DOT":4.14e-6,"MEAN_MOTION_DDOT":0},{"OBJECT_NAME":"CUBESAT XI-IV (CO-57)","OBJECT_ID":"2003-031J","EPOCH":"2026-03-05T23:43:08.372640","MEAN_MOTION":14.23557958,"ECCENTRICITY":0.00102256,"INCLINATION":98.6809,"RA_OF_ASC_NODE":74.6285,"ARG_OF_PERICENTER":138.5816,"MEAN_ANOMALY":221.6139,"EPHEMERIS_TYPE":0,"CLASSIFICATION_TYPE":"U","NORAD_CAT_ID":27848,"ELEMENT_SET_NO":999,"REV_AT_EPOCH":17669,"BSTAR":0.00016598253,"MEAN_MOTION_DOT":3.34e-6,"MEAN_MOTION_DDOT":0},{"OBJECT_NAME":"CUBESAT XI-V","OBJECT_ID":"2005-043F","EPOCH":"2026-03-05T20:12:34.911072","MEAN_MOTION":14.72298506,"ECCENTRICITY":0.00145228,"INCLINATION":98.2823,"RA_OF_ASC_NODE":218.3934,"ARG_OF_PERICENTER":169.6232,"MEAN_ANOMALY":190.5277,"EPHEMERIS_TYPE":0,"CLASSIFICATION_TYPE":"U","NORAD_CAT_ID":28895,"ELEMENT_SET_NO":999,"REV_AT_EPOCH":8654,"BSTAR":0.00040085075,"MEAN_MOTION_DOT":2.485e-5,"MEAN_MOTION_DDOT":0},{"OBJECT_NAME":"CUTE-1.7+APD II (CO-65)","OBJECT_ID":"2008-021C","EPOCH":"2026-03-06T04:44:29.020704","MEAN_MOTION":15.08312336,"ECCENTRICITY":0.00101175,"INCLINATION":97.8209,"RA_OF_ASC_NODE":44.6065,"ARG_OF_PERICENTER":30.7915,"MEAN_ANOMALY":329.3904,"EPHEMERIS_TYPE":0,"CLASSIFICATION_TYPE":"U","NORAD_CAT_ID":32785,"ELEMENT_SET_NO":999,"REV_AT_EPOCH":96966,"BSTAR":0.00051765916,"MEAN_MOTION_DOT":7.978e-5,"MEAN_MOTION_DDOT":0},{"OBJECT_NAME":"CANX-2","OBJECT_ID":"2008-021H","EPOCH":"2026-03-06T04:23:14.354592","MEAN_MOTION":15.04750144,"ECCENTRICITY":0.00119304,"INCLINATION":97.8565,"RA_OF_ASC_NODE":43.0757,"ARG_OF_PERICENTER":41.1337,"MEAN_ANOMALY":319.0786,"EPHEMERIS_TYPE":0,"CLASSIFICATION_TYPE":"U","NORAD_CAT_ID":32790,"ELEMENT_SET_NO":999,"REV_AT_EPOCH":96931,"BSTAR":0.00040996144,"MEAN_MOTION_DOT":5.724e-5,"MEAN_MOTION_DDOT":0},{"OBJECT_NAME":"SEEDS II (CO-66)","OBJECT_ID":"2008-021J","EPOCH":"2026-03-05T22:17:44.367936","MEAN_MOTION":15.28882634,"ECCENTRICITY":0.00020856,"INCLINATION":97.7518,"RA_OF_ASC_NODE":58.203,"ARG_OF_PERICENTER":9.8257,"MEAN_ANOMALY":350.3023,"EPHEMERIS_TYPE":0,"CLASSIFICATION_TYPE":"U","NORAD_CAT_ID":32791,"ELEMENT_SET_NO":999,"REV_AT_EPOCH":97149,"BSTAR":0.00081141194,"MEAN_MOTION_DOT":0.00022736,"MEAN_MOTION_DDOT":0},{"OBJECT_NAME":"SWISSCUBE","OBJECT_ID":"2009-051B","EPOCH":"2026-03-06T04:37:51.918528","MEAN_MOTION":14.622483,"ECCENTRICITY":0.00068415,"INCLINATION":98.4101,"RA_OF_ASC_NODE":331.2738,"ARG_OF_PERICENTER":163.0927,"MEAN_ANOMALY":197.0503,"EPHEMERIS_TYPE":0,"CLASSIFICATION_TYPE":"U","NORAD_CAT_ID":35932,"ELEMENT_SET_NO":999,"REV_AT_EPOCH":87410,"BSTAR":0.00035868977,"MEAN_MOTION_DOT":1.759e-5,"MEAN_MOTION_DDOT":0},{"OBJECT_NAME":"BEESAT-1","OBJECT_ID":"2009-051C","EPOCH":"2026-03-06T06:53:07.257984","MEAN_MOTION":14.61523938,"ECCENTRICITY":0.00050778,"INCLINATION":98.4031,"RA_OF_ASC_NODE":331.2163,"ARG_OF_PERICENTER":173.8074,"MEAN_ANOMALY":186.319,"EPHEMERIS_TYPE":0,"CLASSIFICATION_TYPE":"U","NORAD_CAT_ID":35933,"ELEMENT_SET_NO":999,"REV_AT_EPOCH":87415,"BSTAR":0.00030751292,"MEAN_MOTION_DOT":1.477e-5,"MEAN_MOTION_DDOT":0},{"OBJECT_NAME":"ITUPSAT1","OBJECT_ID":"2009-051E","EPOCH":"2026-03-06T06:09:38.639808","MEAN_MOTION":14.60259585,"ECCENTRICITY":0.00070299,"INCLINATION":98.4119,"RA_OF_ASC_NODE":330.4839,"ARG_OF_PERICENTER":189.0317,"MEAN_ANOMALY":171.0757,"EPHEMERIS_TYPE":0,"CLASSIFICATION_TYPE":"U","NORAD_CAT_ID":35935,"ELEMENT_SET_NO":999,"REV_AT_EPOCH":87371,"BSTAR":0.00029045006,"MEAN_MOTION_DOT":1.353e-5,"MEAN_MOTION_DDOT":0},{"OBJECT_NAME":"TISAT 1","OBJECT_ID":"2010-035E","EPOCH":"2026-03-06T06:50:39.643584","MEAN_MOTION":15.27425128,"ECCENTRICITY":7.852e-5,"INCLINATION":98.0648,"RA_OF_ASC_NODE":3.099,"ARG_OF_PERICENTER":167.2342,"MEAN_ANOMALY":192.8915,"EPHEMERIS_TYPE":0,"CLASSIFICATION_TYPE":"U","NORAD_CAT_ID":36799,"ELEMENT_SET_NO":999,"REV_AT_EPOCH":85197,"BSTAR":0.00092801254,"MEAN_MOTION_DOT":0.00024887,"MEAN_MOTION_DDOT":0},{"OBJECT_NAME":"AEROCUBE 4.5A","OBJECT_ID":"2012-048K","EPOCH":"2026-03-06T06:22:29.769312","MEAN_MOTION":15.61264234,"ECCENTRICITY":0.00413606,"INCLINATION":64.6388,"RA_OF_ASC_NODE":31.9747,"ARG_OF_PERICENTER":212.9833,"MEAN_ANOMALY":146.8732,"EPHEMERIS_TYPE":0,"CLASSIFICATION_TYPE":"U","NORAD_CAT_ID":38767,"ELEMENT_SET_NO":999,"REV_AT_EPOCH":35645,"BSTAR":0.0010417832,"MEAN_MOTION_DOT":0.00093577,"MEAN_MOTION_DDOT":0},{"OBJECT_NAME":"STRAND-1","OBJECT_ID":"2013-009E","EPOCH":"2026-03-06T07:00:27.047808","MEAN_MOTION":14.37091392,"ECCENTRICITY":0.00088221,"INCLINATION":98.3884,"RA_OF_ASC_NODE":248.0682,"ARG_OF_PERICENTER":171.6035,"MEAN_ANOMALY":188.5301,"EPHEMERIS_TYPE":0,"CLASSIFICATION_TYPE":"U","NORAD_CAT_ID":39090,"ELEMENT_SET_NO":999,"REV_AT_EPOCH":68228,"BSTAR":0.00018806761,"MEAN_MOTION_DOT":5.16e-6,"MEAN_MOTION_DDOT":0},{"OBJECT_NAME":"BRITE-AUSTRIA","OBJECT_ID":"2013-009F","EPOCH":"2026-03-06T01:15:11.121984","MEAN_MOTION":14.36493427,"ECCENTRICITY":0.00101524,"INCLINATION":98.3951,"RA_OF_ASC_NODE":247.0507,"ARG_OF_PERICENTER":181.8365,"MEAN_ANOMALY":178.2786,"EPHEMERIS_TYPE":0,"CLASSIFICATION_TYPE":"U","NORAD_CAT_ID":39091,"ELEMENT_SET_NO":999,"REV_AT_EPOCH":68224,"BSTAR":0.00011378893,"MEAN_MOTION_DOT":2.91e-6,"MEAN_MOTION_DDOT":0},{"OBJECT_NAME":"NEE-01 PEGASO","OBJECT_ID":"2013-018B","EPOCH":"2026-03-06T05:10:02.740800","MEAN_MOTION":14.9306191,"ECCENTRICITY":0.00136735,"INCLINATION":98.1049,"RA_OF_ASC_NODE":206.1015,"ARG_OF_PERICENTER":139.77,"MEAN_ANOMALY":220.4533,"EPHEMERIS_TYPE":0,"CLASSIFICATION_TYPE":"U","NORAD_CAT_ID":39151,"ELEMENT_SET_NO":999,"REV_AT_EPOCH":69533,"BSTAR":0.00047691076,"MEAN_MOTION_DOT":4.914e-5,"MEAN_MOTION_DDOT":0},{"OBJECT_NAME":"POPACS 2","OBJECT_ID":"2013-055E","EPOCH":"2026-03-06T06:44:38.385312","MEAN_MOTION":14.87594228,"ECCENTRICITY":0.04313266,"INCLINATION":80.9888,"RA_OF_ASC_NODE":261.7153,"ARG_OF_PERICENTER":163.7266,"MEAN_ANOMALY":197.8321,"EPHEMERIS_TYPE":0,"CLASSIFICATION_TYPE":"U","NORAD_CAT_ID":39269,"ELEMENT_SET_NO":999,"REV_AT_EPOCH":64789,"BSTAR":0.00053249409,"MEAN_MOTION_DOT":0.00030503,"MEAN_MOTION_DDOT":0},{"OBJECT_NAME":"POPACS 3","OBJECT_ID":"2013-055F","EPOCH":"2026-03-05T18:10:56.548416","MEAN_MOTION":14.5382125,"ECCENTRICITY":0.05610028,"INCLINATION":81.0058,"RA_OF_ASC_NODE":341.1671,"ARG_OF_PERICENTER":24.6518,"MEAN_ANOMALY":338.0405,"EPHEMERIS_TYPE":0,"CLASSIFICATION_TYPE":"U","NORAD_CAT_ID":39270,"ELEMENT_SET_NO":999,"REV_AT_EPOCH":62351,"BSTAR":0.00043816116,"MEAN_MOTION_DOT":0.0001819,"MEAN_MOTION_DDOT":0}]
